[
    {
        "Altitude(m)": 711355.1254009382,
        "Argument of Periapsis(deg)": 0.010251109067964361,
        "Eccentricity": 0.0,
        "Inclination(deg)": 45.0,
        "Latitude(deg)": -29.07630038738404,
        "Longitude(deg)": 117.88434231114782,
        "Mean Anomaly(deg)": 223.10719498273275,
        "RAAN(deg)": 4.990323252687617,
        "Satellite Name": "Constellation 1 35",
        "Satellite Number": 35,
        "Semi-Major Axis(m)": 7083131.272910544,
        "Time(s)": 171
    },
    {
        "Altitude(m)": 711368.8867881673,
        "Argument of Periapsis(deg)": 0.010311057074209765,
        "Eccentricity": 0.0,
        "Inclination(deg)": 45.0,
        "Latitude(deg)": -29.11215020499179,
        "Longitude(deg)": 117.9361778788031,
        "Mean Anomaly(deg)": 223.16789612298265,
        "RAAN(deg)": 4.990266663522047,
        "Satellite Name": "Constellation 1 35",
        "Satellite Number": 35,
        "Semi-Major Axis(m)": 7083131.272910544,
        "Time(s)": 172
    },
    {
        "Altitude(m)": 711382.645293677,
        "Argument of Periapsis(deg)": 0.010371005080455171,
        "Eccentricity": 0.0,
        "Inclination(deg)": 45.0,
        "Latitude(deg)": -29.14797640376526,
        "Longitude(deg)": 117.98805208387188,
        "Mean Anomaly(deg)": 223.2285972632326,
        "RAAN(deg)": 4.990210074356478,
        "Satellite Name": "Constellation 1 35",
        "Satellite Number": 35,
        "Semi-Major Axis(m)": 7083131.272910544,
        "Time(s)": 173
    },
    {
        "Altitude(m)": 711396.4008694188,
        "Argument of Periapsis(deg)": 0.010430953086700577,
        "Eccentricity": 0.0,
        "Inclination(deg)": 45.0,
        "Latitude(deg)": -29.183778933626968,
        "Longitude(deg)": 118.039964984716,
        "Mean Anomaly(deg)": 223.28929840348246,
        "RAAN(deg)": 4.990153485190908,
        "Satellite Name": "Constellation 1 35",
        "Satellite Number": 35,
        "Semi-Major Axis(m)": 7083131.272910544,
        "Time(s)": 174
    },
    {
        "Altitude(m)": 711410.1534673452,
        "Argument of Periapsis(deg)": 0.010490901092945983,
        "Eccentricity": 0.0,
        "Inclination(deg)": 45.0,
        "Latitude(deg)": -29.219557744428638,
        "Longitude(deg)": 118.0919166396542,
        "Mean Anomaly(deg)": 223.34999954373237,
        "RAAN(deg)": 4.990096896025339,
        "Satellite Name": "Constellation 1 35",
        "Satellite Number": 35,
        "Semi-Major Axis(m)": 7083131.272910544,
        "Time(s)": 175
    },
    {
        "Altitude(m)": 711423.9030394079,
        "Argument of Periapsis(deg)": 0.010550849099191389,
        "Eccentricity": 0.0,
        "Inclination(deg)": 45.0,
        "Latitude(deg)": -29.25531278595126,
        "Longitude(deg)": 118.14390710696149,
        "Mean Anomaly(deg)": 223.41070068398224,
        "RAAN(deg)": 4.990040306859769,
        "Satellite Name": "Constellation 1 35",
        "Satellite Number": 35,
        "Semi-Major Axis(m)": 7083131.272910544,
        "Time(s)": 176
    },
    {
        "Altitude(m)": 711437.6495375591,
        "Argument of Periapsis(deg)": 0.010610797105436795,
        "Eccentricity": 0.0,
        "Inclination(deg)": 45.0,
        "Latitude(deg)": -29.29104400790516,
        "Longitude(deg)": 118.19593644486883,
        "Mean Anomaly(deg)": 223.47140182423215,
        "RAAN(deg)": 4.9899837176942,
        "Satellite Name": "Constellation 1 35",
        "Satellite Number": 35,
        "Semi-Major Axis(m)": 7083131.272910544,
        "Time(s)": 177
    },
    {
        "Altitude(m)": 711451.3929137583,
        "Argument of Periapsis(deg)": 0.0106707451116822,
        "Eccentricity": 0.0,
        "Inclination(deg)": 45.0,
        "Latitude(deg)": -29.326751359929546,
        "Longitude(deg)": 118.24800454346524,
        "Mean Anomaly(deg)": 223.53210296448202,
        "RAAN(deg)": 4.98992712852863,
        "Satellite Name": "Constellation 1 35",
        "Satellite Number": 35,
        "Semi-Major Axis(m)": 7083131.272910544,
        "Time(s)": 178
    },
    {
        "Altitude(m)": 711465.1331199551,
        "Argument of Periapsis(deg)": 0.010730693117927606,
        "Eccentricity": 0.0,
        "Inclination(deg)": 45.0,
        "Latitude(deg)": -29.362434791593266,
        "Longitude(deg)": 118.30011179708512,
        "Mean Anomaly(deg)": 223.59280410473195,
        "RAAN(deg)": 4.989870539363061,
        "Satellite Name": "Constellation 1 35",
        "Satellite Number": 35,
        "Semi-Major Axis(m)": 7083131.272910544,
        "Time(s)": 179
    },
    {
        "Altitude(m)": 711478.8701081071,
        "Argument of Periapsis(deg)": 0.01079064112417301,
        "Eccentricity": 0.0,
        "Inclination(deg)": 45.0,
        "Latitude(deg)": -29.39809425239377,
        "Longitude(deg)": 118.35225809572614,
        "Mean Anomaly(deg)": 223.65350524498186,
        "RAAN(deg)": 4.989813950197491,
        "Satellite Name": "Constellation 1 35",
        "Satellite Number": 35,
        "Semi-Major Axis(m)": 7083131.272910544,
        "Time(s)": 180
    },
    {
        "Altitude(m)": 711492.603830175,
        "Argument of Periapsis(deg)": 0.010850589130418416,
        "Eccentricity": 0.0,
        "Inclination(deg)": 45.0,
        "Latitude(deg)": -29.433729691757705,
        "Longitude(deg)": 118.40444349743618,
        "Mean Anomaly(deg)": 223.71420638523176,
        "RAAN(deg)": 4.989757361031922,
        "Satellite Name": "Constellation 1 35",
        "Satellite Number": 35,
        "Semi-Major Axis(m)": 7083131.272910544,
        "Time(s)": 181
    },
    {
        "Altitude(m)": 711506.3342381195,
        "Argument of Periapsis(deg)": 0.01091053713666382,
        "Eccentricity": 0.0,
        "Inclination(deg)": 45.0,
        "Latitude(deg)": -29.469341059040726,
        "Longitude(deg)": 118.4566680602159,
        "Mean Anomaly(deg)": 223.77490752548164,
        "RAAN(deg)": 4.989700771866352,
        "Satellite Name": "Constellation 1 35",
        "Satellite Number": 35,
        "Semi-Major Axis(m)": 7083131.272910544,
        "Time(s)": 182
    },
    {
        "Altitude(m)": 711520.061283902,
        "Argument of Periapsis(deg)": 0.010970485142909228,
        "Eccentricity": 0.0,
        "Inclination(deg)": 45.0,
        "Latitude(deg)": -29.504928303527375,
        "Longitude(deg)": 118.50893184201806,
        "Mean Anomaly(deg)": 223.83560866573154,
        "RAAN(deg)": 4.989644182700783,
        "Satellite Name": "Constellation 1 35",
        "Satellite Number": 35,
        "Semi-Major Axis(m)": 7083131.272910544,
        "Time(s)": 183
    },
    {
        "Altitude(m)": 711533.7849194908,
        "Argument of Periapsis(deg)": 0.011030433149154634,
        "Eccentricity": 0.0,
        "Inclination(deg)": 45.0,
        "Latitude(deg)": -29.54049137443122,
        "Longitude(deg)": 118.56123490074705,
        "Mean Anomaly(deg)": 223.89630980598142,
        "RAAN(deg)": 4.989587593535213,
        "Satellite Name": "Constellation 1 35",
        "Satellite Number": 35,
        "Semi-Major Axis(m)": 7083131.272910544,
        "Time(s)": 184
    },
    {
        "Altitude(m)": 711547.5050968442,
        "Argument of Periapsis(deg)": 0.01109038115540004,
        "Eccentricity": 0.0,
        "Inclination(deg)": 45.0,
        "Latitude(deg)": -29.576030220894413,
        "Longitude(deg)": 118.61357712616106,
        "Mean Anomaly(deg)": 223.95701094623135,
        "RAAN(deg)": 4.989531004369644,
        "Satellite Name": "Constellation 1 35",
        "Satellite Number": 35,
        "Semi-Major Axis(m)": 7083131.272910544,
        "Time(s)": 185
    },
    {
        "Altitude(m)": 711561.2217679464,
        "Argument of Periapsis(deg)": 0.011150329161645444,
        "Eccentricity": 0.0,
        "Inclination(deg)": 45.0,
        "Latitude(deg)": -29.61154479198835,
        "Longitude(deg)": 118.66595891225944,
        "Mean Anomaly(deg)": 224.01771208648125,
        "RAAN(deg)": 4.989474415204074,
        "Satellite Name": "Constellation 1 35",
        "Satellite Number": 35,
        "Semi-Major Axis(m)": 7083131.272910544,
        "Time(s)": 186
    },
    {
        "Altitude(m)": 711574.9348847574,
        "Argument of Periapsis(deg)": 0.01121027716789085,
        "Eccentricity": 0.0,
        "Inclination(deg)": 45.0,
        "Latitude(deg)": -29.647035036712936,
        "Longitude(deg)": 118.7183801487004,
        "Mean Anomaly(deg)": 224.0784132267311,
        "RAAN(deg)": 4.989417826038505,
        "Satellite Name": "Constellation 1 35",
        "Satellite Number": 35,
        "Semi-Major Axis(m)": 7083131.272910544,
        "Time(s)": 187
    },
    {
        "Altitude(m)": 711588.6443992605,
        "Argument of Periapsis(deg)": 0.011270225174136258,
        "Eccentricity": 0.0,
        "Inclination(deg)": 45.0,
        "Latitude(deg)": -29.68250090399677,
        "Longitude(deg)": 118.77084089318812,
        "Mean Anomaly(deg)": 224.13911436698103,
        "RAAN(deg)": 4.989361236872935,
        "Satellite Name": "Constellation 1 35",
        "Satellite Number": 35,
        "Semi-Major Axis(m)": 7083131.272910544,
        "Time(s)": 188
    },
    {
        "Altitude(m)": 711602.3502634335,
        "Argument of Periapsis(deg)": 0.011330173180381662,
        "Eccentricity": 0.0,
        "Inclination(deg)": 45.0,
        "Latitude(deg)": -29.71794234269725,
        "Longitude(deg)": 118.82334120337498,
        "Mean Anomaly(deg)": 224.19981550723094,
        "RAAN(deg)": 4.989304647707366,
        "Satellite Name": "Constellation 1 35",
        "Satellite Number": 35,
        "Semi-Major Axis(m)": 7083131.272910544,
        "Time(s)": 189
    }
]